CCSDS_OMM_VERS = 2.0
CREATION_DATE  = 
ORIGINATOR     = 

OBJECT_NAME    = STARLINK-36318
OBJECT_ID      = 2026-041J
CENTER_NAME    = EARTH
REF_FRAME      = TEME
TIME_SYSTEM    = UTC
MEAN_ELEMENT_THEORY = SGP/SGP4

EPOCH          = 2026-03-14T12:00:02.000160
MEAN_MOTION    = 15.81072020
ECCENTRICITY   = .000062
INCLINATION    = 53.1586
RA_OF_ASC_NODE = 37.9654
ARG_OF_PERICENTER = 132.7561
MEAN_ANOMALY   = 95.5878

EPHEMERIS_TYPE = 0
CLASSIFICATION_TYPE = U
NORAD_CAT_ID   = 68048
ELEMENT_SET_NO = 999
REV_AT_EPOCH   = 314
BSTAR          = -.23750907E-2
MEAN_MOTION_DOT = -.449965E-2
MEAN_MOTION_DDOT = 0

CCSDS_OMM_VERS = 2.0
CREATION_DATE  = 
ORIGINATOR     = 

OBJECT_NAME    = STARLINK-36885
OBJECT_ID      = 2026-041K
CENTER_NAME    = EARTH
REF_FRAME      = TEME
TIME_SYSTEM    = UTC
MEAN_ELEMENT_THEORY = SGP/SGP4

EPOCH          = 2026-03-14T12:00:02.000160
MEAN_MOTION    = 15.81173509
ECCENTRICITY   = .0001097
INCLINATION    = 53.1587
RA_OF_ASC_NODE = 37.9478
ARG_OF_PERICENTER = 107.6242
MEAN_ANOMALY   = 129.2706

EPHEMERIS_TYPE = 0
CLASSIFICATION_TYPE = U
NORAD_CAT_ID   = 68049
ELEMENT_SET_NO = 999
REV_AT_EPOCH   = 314
BSTAR          = -.11898627E-1
MEAN_MOTION_DOT = -.2053693E-1
MEAN_MOTION_DDOT = 0

CCSDS_OMM_VERS = 2.0
CREATION_DATE  = 
ORIGINATOR     = 

OBJECT_NAME    = STARLINK-36945
OBJECT_ID      = 2026-041L
CENTER_NAME    = EARTH
REF_FRAME      = TEME
TIME_SYSTEM    = UTC
MEAN_ELEMENT_THEORY = SGP/SGP4

EPOCH          = 2026-03-14T12:00:02.000160
MEAN_MOTION    = 15.80926050
ECCENTRICITY   = .00011334
INCLINATION    = 53.1587
RA_OF_ASC_NODE = 37.9566
ARG_OF_PERICENTER = 84.7402
MEAN_ANOMALY   = 147.9047

EPHEMERIS_TYPE = 0
CLASSIFICATION_TYPE = U
NORAD_CAT_ID   = 68050
ELEMENT_SET_NO = 999
REV_AT_EPOCH   = 314
BSTAR          = -.1746316E-3
MEAN_MOTION_DOT = -.3511E-3
MEAN_MOTION_DDOT = 0

CCSDS_OMM_VERS = 2.0
CREATION_DATE  = 
ORIGINATOR     = 

OBJECT_NAME    = STARLINK-35911
OBJECT_ID      = 2026-041M
CENTER_NAME    = EARTH
REF_FRAME      = TEME
TIME_SYSTEM    = UTC
MEAN_ELEMENT_THEORY = SGP/SGP4

EPOCH          = 2026-03-14T12:00:02.000160
MEAN_MOTION    = 15.81021194
ECCENTRICITY   = .00011132
INCLINATION    = 53.1589
RA_OF_ASC_NODE = 37.9392
ARG_OF_PERICENTER = 73.9168
MEAN_ANOMALY   = 167.2630

EPHEMERIS_TYPE = 0
CLASSIFICATION_TYPE = U
NORAD_CAT_ID   = 68051
ELEMENT_SET_NO = 999
REV_AT_EPOCH   = 311
BSTAR          = -.15156701E-2
MEAN_MOTION_DOT = -.291961E-2
MEAN_MOTION_DDOT = 0

CCSDS_OMM_VERS = 2.0
CREATION_DATE  = 
ORIGINATOR     = 

OBJECT_NAME    = STARLINK-35808
OBJECT_ID      = 2026-041N
CENTER_NAME    = EARTH
REF_FRAME      = TEME
TIME_SYSTEM    = UTC
MEAN_ELEMENT_THEORY = SGP/SGP4

EPOCH          = 2026-03-14T12:00:02.000160
MEAN_MOTION    = 15.80893434
ECCENTRICITY   = .00011426
INCLINATION    = 53.1587
RA_OF_ASC_NODE = 37.9296
ARG_OF_PERICENTER = 65.6934
MEAN_ANOMALY   = 179.7753

EPHEMERIS_TYPE = 0
CLASSIFICATION_TYPE = U
NORAD_CAT_ID   = 68052
ELEMENT_SET_NO = 999
REV_AT_EPOCH   = 311
BSTAR          = .27084713E-3
MEAN_MOTION_DOT = .53137E-3
MEAN_MOTION_DDOT = 0

CCSDS_OMM_VERS = 2.0
CREATION_DATE  = 
ORIGINATOR     = 

OBJECT_NAME    = STARLINK-36919
OBJECT_ID      = 2026-041P
CENTER_NAME    = EARTH
REF_FRAME      = TEME
TIME_SYSTEM    = UTC
MEAN_ELEMENT_THEORY = SGP/SGP4

EPOCH          = 2026-03-14T12:00:02.000160
MEAN_MOTION    = 15.80907210
ECCENTRICITY   = .00010816
INCLINATION    = 53.1589
RA_OF_ASC_NODE = 37.9206
ARG_OF_PERICENTER = 83.0855
MEAN_ANOMALY   = 166.6541

EPHEMERIS_TYPE = 0
CLASSIFICATION_TYPE = U
NORAD_CAT_ID   = 68053
ELEMENT_SET_NO = 999
REV_AT_EPOCH   = 315
BSTAR          = -.43216472E-4
MEAN_MOTION_DOT = -.9233E-4
MEAN_MOTION_DDOT = 0

CCSDS_OMM_VERS = 2.0
CREATION_DATE  = 
ORIGINATOR     = 

OBJECT_NAME    = STARLINK-36924
OBJECT_ID      = 2026-041Q
CENTER_NAME    = EARTH
REF_FRAME      = TEME
TIME_SYSTEM    = UTC
MEAN_ELEMENT_THEORY = SGP/SGP4

EPOCH          = 2026-03-14T12:00:02.000160
MEAN_MOTION    = 15.81352409
ECCENTRICITY   = .00009051
INCLINATION    = 53.1587
RA_OF_ASC_NODE = 37.9039
ARG_OF_PERICENTER = 107.5003
MEAN_ANOMALY   = 150.7210

EPHEMERIS_TYPE = 0
CLASSIFICATION_TYPE = U
NORAD_CAT_ID   = 68054
ELEMENT_SET_NO = 999
REV_AT_EPOCH   = 315
BSTAR          = -.90500787E-2
MEAN_MOTION_DOT = -.1597306E-1
MEAN_MOTION_DDOT = 0

CCSDS_OMM_VERS = 2.0
CREATION_DATE  = 
ORIGINATOR     = 

OBJECT_NAME    = STARLINK-35998
OBJECT_ID      = 2026-041R
CENTER_NAME    = EARTH
REF_FRAME      = TEME
TIME_SYSTEM    = UTC
MEAN_ELEMENT_THEORY = SGP/SGP4

EPOCH          = 2026-03-14T12:00:02.000160
MEAN_MOTION    = 15.81050977
ECCENTRICITY   = .00012171
INCLINATION    = 53.1589
RA_OF_ASC_NODE = 37.9122
ARG_OF_PERICENTER = 88.4094
MEAN_ANOMALY   = 165.5291

EPHEMERIS_TYPE = 0
CLASSIFICATION_TYPE = U
NORAD_CAT_ID   = 68055
ELEMENT_SET_NO = 999
REV_AT_EPOCH   = 311
BSTAR          = -.14858454E-2
MEAN_MOTION_DOT = -.286799E-2
MEAN_MOTION_DDOT = 0

CCSDS_OMM_VERS = 2.0
CREATION_DATE  = 
ORIGINATOR     = 

OBJECT_NAME    = STARLINK-36845
OBJECT_ID      = 2026-041S
CENTER_NAME    = EARTH
REF_FRAME      = TEME
TIME_SYSTEM    = UTC
MEAN_ELEMENT_THEORY = SGP/SGP4

EPOCH          = 2026-03-14T12:00:02.000160
MEAN_MOTION    = 15.80981144
ECCENTRICITY   = .00004641
INCLINATION    = 53.1590
RA_OF_ASC_NODE = 37.8945
ARG_OF_PERICENTER = 119.3520
MEAN_ANOMALY   = 143.1838

EPHEMERIS_TYPE = 0
CLASSIFICATION_TYPE = U
NORAD_CAT_ID   = 68056
ELEMENT_SET_NO = 999
REV_AT_EPOCH   = 315
BSTAR          = -.99201641E-3
MEAN_MOTION_DOT = -.193125E-2
MEAN_MOTION_DDOT = 0

CCSDS_OMM_VERS = 2.0
CREATION_DATE  = 
ORIGINATOR     = 

OBJECT_NAME    = STARLINK-36954
OBJECT_ID      = 2026-041T
CENTER_NAME    = EARTH
REF_FRAME      = TEME
TIME_SYSTEM    = UTC
MEAN_ELEMENT_THEORY = SGP/SGP4

EPOCH          = 2026-03-14T12:00:02.000160
MEAN_MOTION    = 15.80291633
ECCENTRICITY   = .00011517
INCLINATION    = 53.1590
RA_OF_ASC_NODE = 37.8859
ARG_OF_PERICENTER = 83.4565
MEAN_ANOMALY   = 183.1840

EPHEMERIS_TYPE = 0
CLASSIFICATION_TYPE = U
NORAD_CAT_ID   = 68057
ELEMENT_SET_NO = 999
REV_AT_EPOCH   = 315
BSTAR          = -.12143309E-1
MEAN_MOTION_DOT = -.2017409E-1
MEAN_MOTION_DDOT = 0

CCSDS_OMM_VERS = 2.0
CREATION_DATE  = 
ORIGINATOR     = 

OBJECT_NAME    = STARLINK-36899
OBJECT_ID      = 2026-041U
CENTER_NAME    = EARTH
REF_FRAME      = TEME
TIME_SYSTEM    = UTC
MEAN_ELEMENT_THEORY = SGP/SGP4

EPOCH          = 2026-03-14T12:00:02.000160
MEAN_MOTION    = 15.80995524
ECCENTRICITY   = .00007514
INCLINATION    = 53.1591
RA_OF_ASC_NODE = 37.8768
ARG_OF_PERICENTER = 48.7871
MEAN_ANOMALY   = 222.2953

EPHEMERIS_TYPE = 0
CLASSIFICATION_TYPE = U
NORAD_CAT_ID   = 68058
ELEMENT_SET_NO = 999
REV_AT_EPOCH   = 315
BSTAR          = -.11726535E-2
MEAN_MOTION_DOT = -.227431E-2
MEAN_MOTION_DDOT = 0

CCSDS_OMM_VERS = 2.0
CREATION_DATE  = 
ORIGINATOR     = 

OBJECT_NAME    = STARLINK-36917
OBJECT_ID      = 2026-041V
CENTER_NAME    = EARTH
REF_FRAME      = TEME
TIME_SYSTEM    = UTC
MEAN_ELEMENT_THEORY = SGP/SGP4

EPOCH          = 2026-03-14T12:00:02.000160
MEAN_MOTION    = 15.80972834
ECCENTRICITY   = .00008875
INCLINATION    = 53.1591
RA_OF_ASC_NODE = 37.8682
ARG_OF_PERICENTER = 91.9076
MEAN_ANOMALY   = 183.4457

EPHEMERIS_TYPE = 0
CLASSIFICATION_TYPE = U
NORAD_CAT_ID   = 68059
ELEMENT_SET_NO = 999
REV_AT_EPOCH   = 315
BSTAR          = -.78470336E-3
MEAN_MOTION_DOT = -.153555E-2
MEAN_MOTION_DDOT = 0

